{
  "norad_id": 37185,
  "name": "XM-5",
  "history": [
    {
      "epoch": "2026-03-28T12:31:40.793952Z",
      "apogee_km": 35803.838351001665,
      "perigee_km": 35770.3422944165,
      "latitude_deg": 0.007996711830472231,
      "longitude_deg": -115.14119338800978,
      "height_km": 35783.459345469695,
      "semi_major_axis_km": 42165.227322709085,
      "eccentricity": 0.0003972,
      "inclination_deg": 0.0671,
      "raan_deg": 270.7657,
      "arg_perigee_deg": 268.6212,
      "mean_anomaly_deg": 79.2646,
      "mean_motion_rev_day": 1.00270018
    },
    {
      "epoch": "2026-03-29T03:18:38.644992Z",
      "apogee_km": 35802.190609399775,
      "perigee_km": 35770.72738786559,
      "latitude_deg": -0.05255560404267035,
      "longitude_deg": -115.22102927216804,
      "height_km": 35777.99989791867,
      "semi_major_axis_km": 42164.595998632685,
      "eccentricity": 0.0003731,
      "inclination_deg": 0.0678,
      "raan_deg": 270.1966,
      "arg_perigee_deg": 270.5939,
      "mean_anomaly_deg": 300.2115,
      "mean_motion_rev_day": 1.0027227
    },
    {
      "epoch": "2026-03-30T05:30:35.313696Z",
      "apogee_km": 35802.4795427951,
      "perigee_km": 35771.42916952043,
      "latitude_deg": -0.07112115490182234,
      "longitude_deg": -115.20305109044595,
      "height_km": 35772.23623203803,
      "semi_major_axis_km": 42165.09135615777,
      "eccentricity": 0.0003682,
      "inclination_deg": 0.0687,
      "raan_deg": 269.9376,
      "arg_perigee_deg": 269.4353,
      "mean_anomaly_deg": 335.691,
      "mean_motion_rev_day": 1.00270503
    },
    {
      "epoch": "2026-03-30T05:30:35.314560Z",
      "apogee_km": 35802.47827784236,
      "perigee_km": 35771.43043447317,
      "latitude_deg": -0.07112115509427691,
      "longitude_deg": -115.20305327653168,
      "height_km": 35772.23739039414,
      "semi_major_axis_km": 42165.09135615777,
      "eccentricity": 0.00036817,
      "inclination_deg": 0.0687,
      "raan_deg": 269.9376,
      "arg_perigee_deg": 269.4353,
      "mean_anomaly_deg": 335.691,
      "mean_motion_rev_day": 1.00270503
    }
  ]
}